CUBEBUG-2 (LO-74)       
1 39440U 13066AA  26170.80959460  .00004228  00000+0  39138-3 0  9995
2 39440  97.8909 119.7987 0058217  20.6238 339.7312 14.93782039677385
FUNCUBE-1 (AO-73)       
1 39444U 13066AE  26170.37665816  .00004964  00000+0  30928-3 0  9995
2 39444  97.8280 141.8681 0035834 193.1795 166.8500 15.09511616679998
UWE-3                   
1 39446U 13066AG  26170.82240805  .00003743  00000+0  32306-3 0  9990
2 39446  97.8700 126.9136 0047239 312.3299  47.3925 14.97042673677970
UNISAT-6                
1 40012U 14033C   26170.88989470  .00002238  00000+0  24363-3 0  9992
2 40012  97.7886 323.5539 0046133  60.6593 299.9221 14.88256994646567
DUCHIFAT-1              
1 40021U 14033M   26170.64352406  .00095101  00000+0  96085-3 0  9990
2 40021  98.0454 230.1491 0002568 110.7852 249.3681 15.65018762656139
QB50P1                  
1 40025U 14033R   26170.25905701  .00006785  00000+0  33444-3 0  9993
2 40025  98.0964 181.5504 0008005 207.6997 152.3810 15.18285787653349
LILACSAT-2              
1 40908U 15049K   26170.91662979  .00014767  00000+0  25112-3 0  9993
2 40908  97.4640 207.8622 0005683 232.1035 127.9704 15.51519617596177
FOX-1A (AO-85)          
1 40967U 15058D   26170.76723961  .00001694  00000+0  16076-3 0  9994
2 40967  64.7745 270.9655 0130569  55.6095 305.7282 14.90978964113952
CAS-2T & KS-1Q          
1 41847U 16066G   26170.73400532  .00001315  00000+0  19133-3 0  9992
2 41847  98.3821 246.4413 0342865 121.7773 241.7303 14.44701664505161
RADFXSAT (FOX-1B)       
1 43017U 17073E   26170.58926228  .00006334  00000+0  27795-3 0  9999
2 43017  97.4695  37.7543 0149369 320.8671  38.1830 15.12745467465757
DIWATA-2B               
1 43678U 18084H   26170.90406564  .00002079  00000+0  17018-3 0  9996
2 43678  98.1185   7.2300 0012731 161.4269 198.7420 15.00463071416624
ES'HAIL 2               
1 43700U 18090A   26170.82676530  .00000139  00000+0  00000+0 0  9996
2 43700   0.0141  54.5765 0001783  70.0323 106.8506  1.00272188 27709
FOX-1CLIFF (AO-95)      
1 43770U 18099N   26170.69934199  .00009300  00000+0  35595-3 0  9995
2 43770  97.4377 230.9364 0007708 348.2880  11.8178 15.26755639413601
ITASAT                  
1 43786U 18099AE  26170.65654310  .00004921  00000+0  23743-3 0  9998
2 43786  97.4023 222.1190 0011827 351.5334   8.5699 15.19082149413280
JY1SAT (JO-97)          
1 43803U 18099AX  26170.70553725  .00013869  00000+0  42740-3 0  9991
2 43803  97.4125 233.5484 0004492 250.8022 109.2735 15.33718827414017
UWE-4                   
1 43880U 18111E   26170.73909040  .00028000  00000+0  56934-3 0  9992
2 43880  97.5852  99.2477 0005067 330.7950  29.3015 15.46259003411173
TIANYAN 01              
1 44881U 19093C   26170.93919250  .00000238  00000+0  32873-4 0  9990
2 44881  97.7526 243.1042 0015038  78.7667 281.5238 14.86520650351822
RS-44 & BREEZE-KM R/B   
1 44909U 19096E   26170.50699800  .00000010  00000+0 -97910-5 0  9996
2 44909  82.5220 338.1631 0218257 138.7616 223.0205 12.79748873302644
SALSAT                  
1 46495U 20068K   26170.95810387  .00006379  00000+0  22355-3 0  9995
2 46495  97.8854 174.1914 0007892 296.5001  63.5428 15.29832652315782
XW-3 (CAS-9)            
1 50466U 21131B   26170.97021572  .00000288  00000+0  10257-3 0  9993
2 50466  98.4983 263.3449 0005401  90.3739 269.8069 14.41359043235516
GREENCUBE (IO-117)      
1 53109U 22080E   26170.67448082 -.00000003  00000+0  00000+0 0  9997
2 53109  70.1442 297.3799 0008827 289.0639  70.9064  6.42583159 92220
UMKA 1 (RS40S)          
1 57172U 23091G   26170.92312830  .00005039  00000+0  23086-3 0  9999
2 57172  97.5046 229.6100 0014326 109.1797 251.0990 15.20844234164421
CUBESX-HSE 3 (RS42S)    
1 57178U 23091N   26170.91847962  .00011347  00000+0  37733-3 0  9996
2 57178  97.5086 236.5404 0011961  86.4186 273.8423 15.31271778164844
MONITOR-3 (RS58S)       
1 57180U 23091Q   26170.94900305  .00008677  00000+0  32071-3 0  9995
2 57180  97.5078 234.4156 0013048  92.3016 267.9717 15.27887642164719
MONITOR-4 (RS57S)       
1 57182U 23091S   26170.92790635  .00009026  00000+0  33262-3 0  9990
2 57182  97.5072 234.3656 0013058  92.7505 267.5229 15.27973176164719
MONITOR-2 (RS39S)       
1 57184U 23091U   26170.94781777  .00003771  00000+0  18352-3 0  9995
2 57184  97.5067 229.2132 0012779 102.7574 257.5090 15.18931792164379
SVYATOBOR 1 (RS60S)     
1 57187U 23091X   26170.94335711  .00007434  00000+0  28584-3 0  9999
2 57187  97.5084 234.7759 0010825  86.2912 273.9564 15.26653723164731
VIZARD-METEO (RS38S)    
1 57189U 23091Z   26170.94879391  .00014379  00000+0  41058-3 0  9995
2 57189  97.5087 240.4896 0008097  69.5573 290.6539 15.36098990165118
POLYTECH-UNIVERSE 3 (R*)
1 57191U 23091AB  26170.90878506  .00004424  00000+0  21316-3 0  9996
2 57191  97.5043 228.6788 0016990 118.1572 242.1382 15.19134475164366
UTMN 2 (RS27S)          
1 57203U 23091AP  26170.93457531  .00010857  00000+0  35225-3 0  9995
2 57203  97.5083 238.1940 0009123  75.6461 284.5793 15.32107595164964
